[{"OBJECT_NAME":"STARLINK-3389","OBJECT_ID":"2022-005W","EPOCH":"2026-03-09T21:26:09.889728","MEAN_MOTION":15.08838248,"ECCENTRICITY":0.00011777,"INCLINATION":53.2175,"RA_OF_ASC_NODE":298.2095,"ARG_OF_PERICENTER":88.651,"MEAN_ANOMALY":271.4617,"EPHEMERIS_TYPE":0,"CLASSIFICATION_TYPE":"U","NORAD_CAT_ID":51124,"ELEMENT_SET_NO":999,"REV_AT_EPOCH":22877,"BSTAR":-7.39665e-7,"MEAN_MOTION_DOT":-3.0e-6,"MEAN_MOTION_DDOT":0},{"OBJECT_NAME":"STRIX-2","OBJECT_ID":"2024-248A","EPOCH":"2026-03-09T23:00:54.819648","MEAN_MOTION":15.07630986,"ECCENTRICITY":0.00151844,"INCLINATION":97.6197,"RA_OF_ASC_NODE":25.3276,"ARG_OF_PERICENTER":319.5195,"MEAN_ANOMALY":40.4902,"EPHEMERIS_TYPE":0,"CLASSIFICATION_TYPE":"U","NORAD_CAT_ID":62406,"ELEMENT_SET_NO":999,"REV_AT_EPOCH":6663,"BSTAR":0.00066021351,"MEAN_MOTION_DOT":0.00010025,"MEAN_MOTION_DDOT":0}]
